DUCHIFAT-1              
1 40021U 14033M   26169.68438844  .00088318  00000+0  89916-3 0  9990
2 40021  98.0447 229.0553 0002814 113.8680 246.2872 15.64848252655988
NANOSATC-BR1            
1 40024U 14033Q   26169.83886973  .00012819  00000+0  42393-3 0  9991
2 40024  98.0716 202.3732 0004556 158.4480 201.6952 15.31498913654231
QB50P1                  
1 40025U 14033R   26169.92953077  .00006220  00000+0  30693-3 0  9991
2 40025  98.0963 181.1977 0008007 208.7804 151.2987 15.18280964653298
DTUSAT-2                
1 40030U 14033W   26169.88907656  .00005314  00000+0  28820-3 0  9996
2 40030  98.0864 167.7240 0006804 218.7107 141.3636 15.15033669652944
QB50P2                  
1 40032U 14033Y   26169.94923947  .00005820  00000+0  31389-3 0  9992
2 40032  98.0753 166.9392 0008169 158.0702 202.0879 15.15176502652932
PERSEUS-M1              
1 40039U 14033AF  26169.77562578  .00001322  00000+0  12433-3 0  9991
2 40039  97.9640 113.9333 0010197 295.2954  64.7209 14.95634843650871
POLYITAN-1              
1 40042U 14033AJ  26169.61855687  .00015200  00000+0  47423-3 0  9991
2 40042  98.0940 196.0151 0008724 137.4054 222.7864 15.33297714653816
TIGRISAT                
1 40043U 14033AK  26169.93495336  .00001540  00000+0  18213-3 0  9995
2 40043  97.7832 319.9063 0050540  69.6369 291.0266 14.85167819645880
CANX-4                  
1 40055U 14034C   26169.90820712  .00000689  00000+0  95634-4 0  9992
2 40055  98.3120  45.2845 0013039  11.6457 348.5053 14.81267198644781
CANX-5                  
1 40056U 14034D   26169.90662027  .00000701  00000+0  97213-4 0  9996
2 40056  98.3121  45.3265 0013042  11.8778 348.2739 14.81284514635590
GONETS-M 10             
1 40063U 14036C   26170.00229258  .00000033  00000+0  16217-3 0  9996
2 40063  82.5119 306.5464 0022725 136.8046 223.4822 12.42945679542479
METEOR-M 2              
1 40069U 14037A   26169.97574329  .00000188  00000+0  10498-3 0  9995
2 40069  98.5117 145.6511 0006672  40.0106 320.1562 14.21462439619570
DX1                     
1 40071U 14037C   26169.97316838  .00001150  00000+0  12583-3 0  9994
2 40071  98.3870 131.7832 0005717 268.2622  91.7939 14.89988121646377
UKUBE-1                 
1 40074U 14037F   26169.95322852  .00007098  00000+0  39988-3 0  9993
2 40074  98.4237 173.4107 0002723 129.5212 230.6257 15.13577240648827
GAOFEN-2                
1 40118U 14049A   26170.00067619  .00000473  00000+0  68130-4 0  9992
2 40118  98.0106 234.2062 0006294 219.3716 140.7039 14.80899495639503
BRITE-PL2 (HEWELIUSZ)   
1 40119U 14049B   26169.77913407  .00001598  00000+0  15283-3 0  9999
2 40119  97.9100 281.7913 0015333 103.7702 256.5226 14.94598146641683
CBERS 4                 
1 40336U 14079A   26169.98886652 -.00000014  00000+0  97636-5 0  9994
2 40336  98.3527 226.7640 0001776  63.1935 296.9433 14.35509137604214
SMAP                    
1 40376U 15003A   26169.92605309  .00000306  00000+0  68395-4 0  9990
2 40376  98.1276 176.9960 0001343  96.3958 263.7397 14.63367814607872
GONETS-M 11             
1 40552U 15020A   26169.94030749  .00000026  00000+0  11350-3 0  9994
2 40552  82.4863  29.8991 0016540   2.0433 358.0711 12.42877457508954
GONETS-M 12             
1 40553U 15020B   26169.99427495  .00000034  00000+0  17408-3 0  9997
2 40553  82.4897  30.9899 0015251 347.0895  12.9792 12.42891430508956
GONETS-M 13             
1 40554U 15020C   26169.96778749  .00000030  00000+0  14757-3 0  9996
2 40554  82.4859  29.6207 0013572 332.3604  27.6753 12.42870697508921
DMC3-FM1                
1 40715U 15032A   26169.95641182  .00000051  00000+0  11837-4 0  9997
2 40715  97.6454  35.0620 0006935  54.8179 305.3686 14.85738998590172
DMC3-FM2                
1 40716U 15032B   26169.91111074  .00000560  00000+0  70391-4 0  9991
2 40716  97.6508  36.5930 0007487  59.4504 300.7449 14.85745395590163
DMC3-FM3                
1 40717U 15032C   26169.93444752  .00001153  00000+0  13870-3 0  9993
2 40717  97.6561  38.3701 0006775  60.1546 300.0342 14.85738086590178
CARBONITE 1 (CBNT-1)    
1 40718U 15032D   26170.00353956  .00001666  00000+0  20803-3 0  9992
2 40718  97.6505 347.9933 0013074 291.8307  68.1517 14.83593680589611
LILACSAT-2              
1 40908U 15049K   26169.94919209  .00013503  00000+0  23003-3 0  9999
2 40908  97.4640 206.8579 0005617 236.7173 123.3541 15.51491899596021
